#aV2016  1 27  0  0  0.00000000     288 DD+AD WGS84 FIT  NGA
## 1881 259200.00000000   300.00000000 57414 0.0000000000000
+   30     1  2  3  5  6  7  8  9 10 11 12 13 14 15 16 17 18
+         19 20 21 22 23 24 25 26 27 28 29 30 31  0  0  0  0
+          0  0  0  0  0  0  0  0  0  0  0  0  0  0  0  0  0
+          0  0  0  0  0  0  0  0  0  0  0  0  0  0  0  0  0
+          0  0  0  0  0  0  0  0  0  0  0  0  0  0  0  0  0
++         2  2  2  2  2  2  2  2  2  2  2  2  2  2  2  2  2
++         2  2  2  2  2  2  2  2  2  2  2  2  2  0  0  0  0
++         0  0  0  0  0  0  0  0  0  0  0  0  0  0  0  0  0
++         0  0  0  0  0  0  0  0  0  0  0  0  0  0  0  0  0
++         0  0  0  0  0  0  0  0  0  0  0  0  0  0  0  0  0
%c cc cc ccc ccc cccc cccc cccc cccc ccccc ccccc ccccc ccccc
%c cc cc ccc ccc cccc cccc cccc cccc ccccc ccccc ccccc ccccc
%f  0.0000000  0.000000000  0.00000000000  0.000000000000000
%f  0.0000000  0.000000000  0.00000000000  0.000000000000000
%i    0    0    0    0      0      0      0      0         0
%i    0    0    0    0      0      0      0      0         0
/*      NGA, ST. LOUIS,MO.                                  
/*   EPHEMERIS COMPUTED FROM 2 DAYS OF DATA                 
/*   EPOCHA v2.4 SMOOTHER                                   
/*   G1762 IERS2010 SATAF SATAPC                            
*  2016  1 27 16 40  0.00000000
P  1 -13677.139313  19110.961745  12089.439300     10.203802                    
V  1   1578.814106 -15652.645912  26577.889398      0.009594                    
P  2  14883.609705   4053.857738 -21215.807614    599.429361                    
V  2  -5835.100438  27364.153794    697.460167      0.001667                    
P  3 -21039.613383  12993.426207  -9717.668647    -17.060244                    
V  3 -12566.607242    873.770616  28366.924687     -0.049265                    
P  5  25261.730195   -973.112197  -8535.376373   -151.496624                    
V  5  -9480.151250   5730.978737 -28755.000210      0.034747                    
P  6   8326.378270  17765.925567 -17898.807820    135.998724                    
V  6  -7077.904147  21656.133115  18187.433186      0.061165                    
P  7  -5186.669168  25689.362123   2835.102564    472.098278                    
V  7  -3727.260448   2567.605930 -31900.413697     -0.015469                    
P  8 -18003.443325   1554.046457  19525.558113    -21.630754                    
V  8 -16899.376658 -18008.742693 -14177.978882     -0.014910                    
P  9   1493.733673  19306.504571 -18193.418039     58.611923                    
V  9 -17752.803104 -14845.351226 -17236.934479      0.077738                    
P 10  -9103.885175 -12955.217643  21338.188041     48.381188                    
V 10  25887.509634  -7948.370100   6171.570337     -0.019429                    
P 11 -12303.809318  15201.460091  17398.454938   -629.365658                    
V 11  -5325.498408 -23007.248746  15899.910675     -0.018890                    
P 12  23612.874420  -9897.231086  -6717.942426    363.947347                    
V 12   8635.389269     34.499375  31016.420381      0.026404                    
P 13  20014.472843   7939.915436  15353.191092   -181.323462                    
V 13  11058.563554  16474.540501 -22820.265430     -0.025900                    
P 14 -13953.749205 -21996.011708   5828.660889      6.635593                    
V 14   6495.116071   3675.280658  30592.086423     -0.023099                    
P 15  16248.730967  -5738.873481  20168.412767   -294.318341                    
V 15  18839.530412  17819.010260  -9702.119897     -0.018740                    
P 16 -25180.064885   -844.152156  -9091.266858    -44.756457                    
V 16  10756.918422  -3650.340958 -29357.239533      0.032091                    
P 17  13796.263984  21787.995198   7103.653772   -199.638982                    
V 17  -7306.392188  -4839.209024  30238.221942     -0.008001                    
P 18   3368.323757 -17181.949269  20427.365891    477.363828                    
V 18  24249.457875  -6237.360141  -9762.758126      0.038994                    
P 19  15269.137510  21218.471109   3043.125027   -524.622135                    
V 19  -4841.097053  -1376.122682  31960.618486     -0.001865                    
P 20  22329.980245 -13067.633400   5982.360481    388.686242                    
V 20   8631.742466    774.582830 -29675.414698      0.026534                    
P 21    781.117491 -25689.022016   6782.755554   -507.437703                    
V 21   5203.229918  -6783.491643 -29781.798561     -0.019868                    
P 22 -21360.093676  -5398.040973  15199.288815    405.829206                    
V 22  17291.641063  -8141.670206  21572.450038     -0.053073                    
P 23 -10268.822052  11548.806218 -21419.765955   -157.084764                    
V 23 -20008.412641 -19118.302006  -1139.645302     -0.019145                    
P 24  14486.073808 -16777.540136  14444.795578    -11.417232                    
V 24  -1797.843404  18599.453410  23516.666607     -0.006312                    
P 25  13217.992647 -15568.982875 -16978.177731   -106.711293                    
V 25  21011.105503  -4312.382926  20616.048804     -0.065192                    
P 26 -19117.856343  -6936.609371 -17098.466453   -229.394097                    
V 26  20381.138878  -7666.317853 -19636.332210     -0.162763                    
P 27 -21608.661452  -8528.035297  12987.460376     57.277396                    
V 27 -10467.969573 -12841.908095 -25664.164259      0.034850                    
P 28   7637.968244  13385.950044  22274.924686    498.280161                    
V 28 -26097.909248   5545.140485   5731.602219      0.026925                    
P 29   2031.606234 -17589.940091 -19791.070268    652.849970                    
V 29  17725.894592  17821.469486 -13966.655935      0.009780                    
P 30   1719.136091  23270.539243  12607.142302     89.470716                    
V 30  -7451.707357  14453.191291 -25729.586732      0.045332                    
P 31  -8929.224617 -15870.069328 -19086.581911    285.230674                    
V 31   8201.471772 -23206.433534  15718.629110     -0.016645                    
EOF
